C/2022 E3 (ZTF),h,01/12.7844/2023,109.1683,302.5556,145.8164,1.000292,1.112265,2000,7.5,4.0
# From MPEC 2022-WD2
C/2022 F1 (ATLAS),e,57.9735,350.6538,278.2789,8677,0.0000012,0.99931144,0.0000,08/05.2274/2022,2000,g  7.0,4.0
# From MPEC 2022-QD9
C/2022 F2 (NEOWISE),e,97.2935,58.6972,200.6226,23.82854,0.0084734,0.93347871,3.4707,05/07.0/2023,2000,g 14.5,4.0
# From MPEC 2022-P82
C/2022 H1 (PANSTARRS),e,49.8700,6.3665,246.2612,949.8097,0.0000337,0.99190035,0.0000,01/18.8448/2024,2000,g  6.0,4.0
# From MPEC 2022-VC5
C/2022 J1 (Maury-Attard),e,105.9392,280.7337,305.6664,47.62217,0.0029991,0.96631129,1.3255,05/07.0/2023,2000,g 14.9,4.0
# From MPEC 2023-BF4
C/2022 J2 (Bok),e,149.0971,252.5625,133.0850,92.87008,0.0011013,0.98031920,0.0000,10/27.0970/2022,2000,g 15.5,4.0
# From MPEC 2023-J29
C/2022 JK5 (PANSTARRS),e,16.8309,59.6525,247.1585,43.13793,0.0034787,0.93771278,0.0285,05/07.0/2023,2000,g 11.0,4.0
# From MPEC 2022-ST7
C/2022 K1 (Leonard),h,12/17.5210/2021,41.9651,136.2885,142.6878,1.002708,3.988315,2000,11.0,4.0
# From MPEC 2023-CD7
C/2022 L1 (Catalina),e,123.4661,300.0291,59.8547,538.3170,0.0000789,0.99704365,0.0000,09/28.2475/2022,2000,g 15.8,4.0
# From MPEC 2023-J29
C/2022 L2 (ATLAS),h,03/12.3194/2024,129.3136,39.2423,199.9411,1.001376,2.692297,2000,6.5,4.0
# From MPEC 2023-HD1
P/2022 L3 (ATLAS),e,21.5432,29.8059,10.3287,6.501092,0.0594600,0.62777041,11.2408,05/07.0/2023,2000,g 12.7,4.0
# From MPEC 2022-N37
C/2022 L4 (PANSTARRS),e,141.2364,66.0537,125.3304,279.0399,0.0002114,0.98919518,0.0000,12/08.7954/2021,2000,g 14.0,4.0
# From MPEC 2022-WD2
P/2022 M1 (LONEOS-PANSTARRS),e,7.0237,322.8662,4.4361,4.888455,0.0911899,0.57855320,25.3318,05/07.0/2023,2000,g 17.0,4.0
# From MPEC 2023-FK0
C/2022 N1 (Attard-Maury),e,164.7401,301.8640,41.0744,37.05666,0.0043692,0.96001635,1.0440,05/07.0/2023,2000,g 16.9,4.0
# From MPEC 2023-J29
C/2022 N2 (PANSTARRS),h,07/31.3247/2025,5.5018,319.7397,75.3378,1.004142,3.826640,2000,6.0,4.0
# From MPEC 2023-D72
C/2022 O1 (ATLAS),h,02/15.7341/2022,71.0428,49.9145,268.9006,1.004235,7.430626,2000,6.0,4.0
# From MPEC 2023-HD1
P/2022 O2 (PANSTARRS),e,9.4243,330.4904,48.6295,6.308593,0.0622021,0.72152312,7.4599,05/07.0/2023,2000,g 16.2,4.0
# From MPEC 2023-J29
C/2022 P1 (NEOWISE),e,154.6067,205.0826,249.9384,18.44042,0.0124465,0.91349196,1.9855,05/07.0/2023,2000,g 13.0,4.0
# From MPEC 2023-G31
P/2022 P2 (ZTF),e,12.4414,291.2271,137.6142,4.485850,0.1037378,0.55805750,31.1382,05/07.0/2023,2000,g 12.5,4.0
# From MPEC 2023-HD1
C/2022 P3 (ZTF),e,59.5171,72.2319,0.1044,245.0992,0.0002569,0.98954902,0.0000,07/27.3698/2022,2000,g  9.0,4.0
# From MPEC 2023-HD1
C/2022 Q2 (ATLAS),e,151.4857,352.9441,44.0662,32.67302,0.0052774,0.94967917,0.5035,05/07.0/2023,2000,g 14.6,4.0
# From MPEC 2023-E68
C/2022 QE78 (ATLAS),h,09/10.3226/2025,36.5484,119.9443,0.3435,1.002874,5.482719,2000,5.0,4.0
# From MPEC 2022-WD2
P/2022 R1 (PANSTARRS),e,7.4033,176.1704,222.3778,7.221391,0.0507894,0.50542212,352.0409,05/07.0/2023,2000,g 11.5,4.0
# From MPEC 2022-Y15
C/2022 R2 (ATLAS),e,52.8975,60.4040,78.3726,420.7893,0.0001142,0.99849685,0.0000,10/25.2222/2022,2000,g 17.0,4.0
# From MPEC 2023-D41
C/2022 R3 (Leonard),h,03/05.1244/2023,43.0828,8.2384,72.8449,1.000632,5.129020,2000,9.0,4.0
# From MPEC 2022-X67
P/2022 R4 (PANSTARRS),e,21.0217,176.6242,197.4313,3.835990,0.1311861,0.49016155,39.4400,05/07.0/2023,2000,g 16.5,4.0
# From MPEC 2022-WQ9
P/2022 R5 (PANSTARRS),e,15.2941,115.0517,240.5856,3.069054,0.1833147,0.19543518,63.1635,05/07.0/2023,2000,g 16.0,4.0
# From MPEC 2023-G31
C/2022 R6 (PANSTARRS),h,08/25.6933/2025,57.0214,150.7624,319.8546,1.003415,6.568468,2000,5.0,4.0
# From MPEC 2023-HD1
P/2022 S1 (PANSTARRS),e,34.5820,136.0908,262.7607,6.407712,0.0607645,0.50815555,15.8495,05/07.0/2023,2000,g 15.1,4.0
# From MPEC 2022-VC5
C/2022 S3 (PANSTARRS),h,01/21.6844/2023,78.5518,157.3232,267.9651,1.000369,0.838403,2000,17.0,4.0
# From MPEC 2023-HD1
C/2022 S4 (Lemmon),h,07/17.8144/2024,101.0946,220.1551,268.3150,1.001528,2.767089,2000,12.3,4.0
# From MPEC 2023-HD1
C/2022 S5 (PANSTARRS),e,136.5326,214.8595,232.7790,20.39955,0.0106973,0.89319225,1.7173,05/07.0/2023,2000,g 16.3,4.0
# From MPEC 2023-J29
C/2022 T1 (Lemmon),e,22.5431,236.9222,324.3248,6342,0.0000020,0.99945686,0.0000,02/17.5768/2024,2000,g  9.0,4.0
# From MPEC 2023-D41
C/2022 U1 (Leonard),e,128.1327,72.5064,78.5253,14562,0.0000006,0.99971140,0.0000,03/25.5727/2024,2000,g  8.5,4.0
# From MPEC 2023-HD1
C/2022 U2 (ATLAS),e,48.2487,304.4754,147.9122,95.97979,0.0010482,0.98616326,0.0000,01/14.2235/2023,2000,g 14.6,4.0
# From MPEC 2023-D41
C/2022 U3 (Bok),h,07/27.7182/2024,33.6235,272.8039,188.9770,1.003191,4.828811,2000,7.5,4.0
# From MPEC 2023-J29
C/2022 U4 (Bok),e,52.0352,132.9285,89.0074,3712,0.0000044,0.99921924,0.0000,08/03.6787/2023,2000,g 10.5,4.0
# From MPEC 2023-CD7
P/2022 W1 (Rankin),e,13.4660,38.8164,17.7963,6.967011,0.0535962,0.51658538,12.5004,05/07.0/2023,2000,g 12.5,4.0
# From MPEC 2023-HD1
C/2022 W2 (ATLAS),e,63.5313,320.4502,123.2602,335.4612,0.0001604,0.99069101,0.0000,03/08.6928/2023,2000,g 13.3,4.0
# From MPEC 2023-HD1
C/2022 W3 (Leonard),e,103.5585,132.2689,116.5219,283.0607,0.0002070,0.99506221,0.0000,06/22.7760/2023,2000,g 14.2,4.0
# From MPEC 2023-D41
C/2022 Y1 (Hogan),e,18.8577,285.9138,174.7462,12.55484,0.0221558,0.76441195,3.5615,05/07.0/2023,2000,g 13.0,4.0
# From MPEC 2023-F81
C/2022 Y2 (Lemmon),e,165.9070,216.3495,105.5578,19.64260,0.0113215,0.87043569,0.5134,05/07.0/2023,2000,g 13.5,4.0
# From MPEC 2023-J29
C/2023 A1 (Leonard),e,94.7423,318.3080,159.2503,229.7929,0.0002829,0.99201572,0.0000,03/18.7278/2023,2000,g 14.5,4.0
# From MPEC 2023-HD1
C/2023 A2 (SWAN),e,94.7088,94.4689,142.5694,484.1169,0.0000925,0.99804323,0.0000,01/20.3824/2023,2000,g  9.0,4.0
# From MPEC 2023-J29
C/2023 A3 (Tsuchinshan-ATLAS),h,09/27.6718/2024,139.1180,21.5576,308.4877,1.000181,0.391281,2000,5.0,4.0
# From MPEC 2023-J29
P/2023 B1 (PANSTARRS),e,14.5884,78.5829,81.3665,7.050790,0.0526438,0.12902183,0.4299,05/07.0/2023,2000,g  5.5,4.0
# From MPEC 2023-J29
C/2023 B2 (ATLAS),e,40.7709,218.1206,317.3992,607.8665,0.0000658,0.99713238,0.0000,03/10.4956/2023,2000,g 14.5,4.0
# From MPEC 2023-F81
P/2023 B3 (PANSTARRS),e,9.1626,154.0061,239.8997,4.544327,0.1017419,0.12327465,99.2222,05/07.0/2023,2000,g 10.5,4.0
# From MPEC 2023-J29
C/2023 C2 (ATLAS),e,48.3175,301.0302,357.4454,3770,0.0000043,0.99937177,0.0000,11/16.7909/2024,2000,g  7.0,4.0
# From MPEC 2023-J29
C/2023 E1 (ATLAS),e,38.3139,164.5748,105.8932,19.35079,0.0115786,0.94694716,359.3619,05/07.0/2023,2000,g 15.5,4.0
# From MPEC 2023-J29
C/2023 F1 (PANSTARRS),e,131.7475,25.2481,216.6716,237.3580,0.0002695,0.99280431,0.0000,06/28.3852/2023,2000,g 16.0,4.0
# From  98, 1083
1P/Halley,e,162.1638,59.4690,112.3814,17.86824,0.0130491,0.96684423,177.1950,05/07.0/2023,2000,g  4.0,6.0
# From MPEC 2022-Y15
2P/Encke,e,11.3416,334.0430,187.2652,2.219203,0.2981319,0.84701701,309.7609,05/07.0/2023,2000,g 11.5,6.0
# From MPEC 2023-FK0
4P/Faye,e,8.0092,192.9238,207.0581,3.827021,0.1316476,0.57683035,79.6508,05/07.0/2023,2000,g  8.0,6.0
# From MPEC 2022-WD2
6P/d'Arrest,e,19.5096,138.9410,178.0910,3.497062,0.1507124,0.61241123,89.8819,05/07.0/2023,2000,g  7.5,16.0
# From MPEC 2023-A50
7P/Pons-Winnecke,e,22.3772,93.3213,172.5320,3.409224,0.1565744,0.63859520,111.1782,05/07.0/2023,2000,g 10.0,6.0
# From MPEC 2022-HC2
8P/Tuttle,e,54.9390,270.1915,207.4701,5.703448,0.0723599,0.82022261,44.6636,05/07.0/2023,2000,g  8.0,8.0
# From MPEC 2023-J29
9P/Tempel,e,10.4848,68.5620,179.6806,3.153750,0.1759799,0.50995591,75.2388,05/07.0/2023,2000,g  5.5,10.0
# From MPEC 2023-HD1
10P/Tempel,e,12.0346,117.8148,195.5266,3.061798,0.1839667,0.53802527,142.3897,05/07.0/2023,2000,g 13.2,4.0
# From MPEC 2023-A50
11P/Tempel-Swift-LINEAR,e,14.4301,238.8701,167.9980,3.283842,0.1656268,0.57748778,147.6279,05/07.0/2023,2000,g 17.0,4.0
# From MPEC 2023-J29
12P/Pons-Brooks,e,74.1888,255.8490,198.9853,17.17855,0.0138428,0.95453503,355.1530,05/07.0/2023,2000,g  5.0,6.0
# From  27, 604
13P/Olbers,e,44.6269,85.9116,64.3923,16.86494,0.0142307,0.93033009,354.0117,05/07.0/2023,2000,g  5.0,6.0
# From MPEC 2021-F20
14P/Wolf,e,27.9277,202.0404,159.1216,4.257882,0.1121795,0.35714424,222.0061,05/07.0/2023,2000,g  5.5,12.0
# From MPEC 2022-ED3
15P/Finlay,e,6.7975,13.7119,347.8771,3.508636,0.1499673,0.71695167,99.3536,05/07.0/2023,2000,g 12.0,4.0
# From MPEC 2022-X67
16P/Brooks,e,3.0112,138.8663,245.2697,3.659415,0.1407948,0.48639593,105.3886,05/07.0/2023,2000,g  7.5,10.0
# From MPEC 2023-J29
17P/Holmes,e,19.0260,326.6287,24.5768,3.638392,0.1420169,0.42738026,114.4771,05/07.0/2023,2000,g 10.0,6.0
# From MPEC 2023-J29
19P/Borrelly,e,29.3071,74.2297,351.9463,3.606715,0.1438919,0.63781777,66.0632,05/07.0/2023,2000,g  4.5,10.0
# From MPEC 2021-F20
21P/Giacobini-Zinner,e,32.0585,195.3451,172.8966,3.494578,0.1508731,0.71124356,256.1315,05/07.0/2023,2000,g 11.4,4.0
# From MPEC 2023-BF4
22P/Kopff,e,4.7422,120.7416,162.9933,3.439458,0.1545145,0.54954678,64.0945,05/07.0/2023,2000,g  3.0,10.4
# From MPC 14747
23P/Brorsen-Metcalf,e,19.2597,311.9345,129.2503,16.94251,0.0141331,0.97219340,0.0000,08/12.4459/1989,2000,g 10.0,6.0
# From MPC110085
24P/Schaumasse,e,11.5032,78.3187,58.4556,4.055318,0.1206887,0.70774912,241.9937,05/07.0/2023,2000,g  6.5,14.0
# From MPEC 2022-Y15
26P/Grigg-Skjellerup,e,22.4331,211.5414,2.1499,3.015445,0.1882248,0.64054353,316.2652,05/07.0/2023,2000,g 12.0,16.0
# From MPC 78188
27P/Crommelin,e,29.3743,250.6758,195.8526,9.180502,0.0354327,0.91910692,152.4860,05/07.0/2023,2000,g 12.0,8.0
# From MPEC 2023-FK0
28P/Neujmin,e,14.3100,346.3461,347.4684,6.981775,0.0534263,0.77354437,42.0069,05/07.0/2023,2000,g  8.5,6.0
# From MPEC 2023-J29
29P/Schwassmann-Wachmann,e,9.3627,312.3998,51.2620,6.048877,0.0662509,0.04461246,97.6306,05/07.0/2023,2000,g  4.0,4.0
# From MPEC 2023-CD7
30P/Reinmuth,e,8.0557,117.4425,9.4499,3.734398,0.1365756,0.51570989,296.0757,05/07.0/2023,2000,g  9.5,6.0
# From MPEC 2021-F20
